start=new Date('2022-12-25T00:00:00.000Z').valueOf();
sats=[{"EPHEMERIS_TYPE":"0","OBJECT_ID":"2020-006AL","ELEMENT_SET_NO":"999","SITE":"AFETR","GP_ID":"221377063","ECCENTRICITY":"0.00012330","OBJECT_TYPE":"PAYLOAD","CLASSIFICATION_TYPE":"U","OBJECT_NAME":"STARLINK-1177","TLE_LINE2":"2 45078  53.0575 123.0700 0001233  67.2657 292.8462 15.06402527160244","ARG_OF_PERICENTER":"67.2657","REF_FRAME":"TEME","PERIOD":"95.592","MEAN_ELEMENT_THEORY":"SGP4","LAUNCH_DATE":"2020-01-29","NORAD_CAT_ID":"45078","MEAN_MOTION":"15.06402527","TLE_LINE1":"1 45078U 20006AL  22358.77417574 -.00000474  00000-0 -12933-4 0  9993","MEAN_MOTION_DDOT":"0.0000000000000","TIME_SYSTEM":"UTC","RA_OF_ASC_NODE":"123.0700","SEMIMAJOR_AXIS":"6925.341","MEAN_ANOMALY":"292.8462","CENTER_NAME":"EARTH","RCS_SIZE":"LARGE","APOAPSIS":"548.060","INCLINATION":"53.0575","EPOCH":"2022-12-24T18:34:48.783936","REV_AT_EPOCH":"16024","MEAN_MOTION_DOT":"-0.00000474","COUNTRY_CODE":"US","FILE":"3721442","PERIAPSIS":"546.352","BSTAR":"-0.00001293300000","DECAY_DATE":null},{"TIME_SYSTEM":"UTC","MEAN_MOTION_DDOT":"0.0000000000000","RA_OF_ASC_NODE":"123.7587","SEMIMAJOR_AXIS":"6925.352","CENTER_NAME":"EARTH","MEAN_ANOMALY":"263.6447","RCS_SIZE":"LARGE","APOAPSIS":"547.884","EPOCH":"2022-12-24T14:50:32.673408","INCLINATION":"53.0544","REV_AT_EPOCH":"16022","MEAN_MOTION_DOT":"0.00001279","FILE":"3721442","COUNTRY_CODE":"US","DECAY_DATE":null,"BSTAR":"0.00010473000000","PERIAPSIS":"546.551","EPHEMERIS_TYPE":"0","OBJECT_ID":"2020-006AM","SITE":"AFETR","ELEMENT_SET_NO":"999","GP_ID":"221375812","ECCENTRICITY":"0.00009620","OBJECT_TYPE":"PAYLOAD","CLASSIFICATION_TYPE":"U","ARG_OF_PERICENTER":"96.4652","REF_FRAME":"TEME","OBJECT_NAME":"STARLINK-1149","TLE_LINE2":"2 45079  53.0544 123.7587 0000962  96.4652 263.6447 15.06398779160228","PERIOD":"95.592","MEAN_ELEMENT_THEORY":"SGP4","NORAD_CAT_ID":"45079","LAUNCH_DATE":"2020-01-29","MEAN_MOTION":"15.06398779","TLE_LINE1":"1 45079U 20006AM  22358.61843372  .00001279  00000-0  10473-3 0  9994"},{"SEMIMAJOR_AXIS":"6925.341","CENTER_NAME":"EARTH","MEAN_ANOMALY":"294.0510","APOAPSIS":"548.334","RCS_SIZE":"LARGE","MEAN_MOTION_DDOT":"0.0000000000000","TIME_SYSTEM":"UTC","RA_OF_ASC_NODE":"123.4329","REV_AT_EPOCH":"16024","INCLINATION":"53.0553","EPOCH":"2022-12-24T16:38:02.340096","PERIAPSIS":"546.078","BSTAR":"0.00014768000000","DECAY_DATE":null,"MEAN_MOTION_DOT":"0.00001919","COUNTRY_CODE":"US","FILE":"3721442","GP_ID":"221376062","OBJECT_ID":"2020-006AN","EPHEMERIS_TYPE":"0","ELEMENT_SET_NO":"999","SITE":"AFETR","CLASSIFICATION_TYPE":"U","TLE_LINE2":"2 45080  53.0553 123.4329 0001629  66.0649 294.0510 15.06402390160247","OBJECT_NAME":"STARLINK-1153","REF_FRAME":"TEME","ARG_OF_PERICENTER":"66.0649","ECCENTRICITY":"0.00016290","OBJECT_TYPE":"PAYLOAD","NORAD_CAT_ID":"45080","LAUNCH_DATE":"2020-01-29","PERIOD":"95.592","MEAN_ELEMENT_THEORY":"SGP4","TLE_LINE1":"1 45080U 20006AN  22358.69308264  .00001919  00000-0  14768-3 0  9992","MEAN_MOTION":"15.06402390"},{"REV_AT_EPOCH":"16025","EPOCH":"2022-12-24T17:40:22.868256","INCLINATION":"53.0545","DECAY_DATE":null,"BSTAR":"0.00022415000000","PERIAPSIS":"545.995","MEAN_MOTION_DOT":"0.00003060","FILE":"3721442","COUNTRY_CODE":"US","MEAN_ANOMALY":"296.6471","SEMIMAJOR_AXIS":"6925.318","CENTER_NAME":"EARTH","RCS_SIZE":"LARGE","APOAPSIS":"548.371","TIME_SYSTEM":"UTC","MEAN_MOTION_DDOT":"0.0000000000000","RA_OF_ASC_NODE":"123.2142","NORAD_CAT_ID":"45081","LAUNCH_DATE":"2020-01-29","PERIOD":"95.592","MEAN_ELEMENT_THEORY":"SGP4","TLE_LINE1":"1 45081U 20006AP  22358.73637579  .00003060  00000-0  22415-3 0  9999","MEAN_MOTION":"15.06410021","GP_ID":"221376813","EPHEMERIS_TYPE":"0","OBJECT_ID":"2020-006AP","SITE":"AFETR","ELEMENT_SET_NO":"999","CLASSIFICATION_TYPE":"U","ARG_OF_PERICENTER":"63.4693","REF_FRAME":"TEME","TLE_LINE2":"2 45081  53.0545 123.2142 0001715  63.4693 296.6471 15.06410021160251","OBJECT_NAME":"STARLINK-1151","ECCENTRICITY":"0.00017150","OBJECT_TYPE":"PAYLOAD"},{"TIME_SYSTEM":"UTC","MEAN_MOTION_DDOT":"0.0000000000000","RA_OF_ASC_NODE":"122.9789","SEMIMAJOR_AXIS":"6925.383","MEAN_ANOMALY":"303.3004","CENTER_NAME":"EARTH","RCS_SIZE":"LARGE","APOAPSIS":"548.440","MEAN_MOTION_DOT":"-0.00001451","FILE":"3721442","COUNTRY_CODE":"US","BSTAR":"-0.00007856400000","DECAY_DATE":null,"PERIAPSIS":"546.056","EPOCH":"2022-12-24T19:00:00.332064","INCLINATION":"53.0551","REV_AT_EPOCH":"16025","ECCENTRICITY":"0.00017210","OBJECT_TYPE":"PAYLOAD","CLASSIFICATION_TYPE":"U","REF_FRAME":"TEME","ARG_OF_PERICENTER":"56.8149","TLE_LINE2":"2 45082  53.0551 122.9789 0001721  56.8149 303.3004 15.06388712160250","OBJECT_NAME":"STARLINK-1160","EPHEMERIS_TYPE":"0","OBJECT_ID":"2020-006AQ","ELEMENT_SET_NO":"999","SITE":"AFETR","GP_ID":"221377563","MEAN_MOTION":"15.06388712","TLE_LINE1":"1 45082U 20006AQ  22358.79167051 -.00001451  00000-0 -78564-4 0  9990","PERIOD":"95.593","MEAN_ELEMENT_THEORY":"SGP4","NORAD_CAT_ID":"45082","LAUNCH_DATE":"2020-01-29"},{"TLE_LINE1":"1 45083U 20006AR  22358.75758386  .00001050  00000-0  89346-4 0  9997","MEAN_MOTION":"15.06397288","NORAD_CAT_ID":"45083","LAUNCH_DATE":"2020-01-29","MEAN_ELEMENT_THEORY":"SGP4","PERIOD":"95.592","OBJECT_NAME":"STARLINK-1190","TLE_LINE2":"2 45083  53.0541 143.1330 0001385  65.5121 294.6013 15.06397288159977","REF_FRAME":"TEME","ARG_OF_PERICENTER":"65.5121","CLASSIFICATION_TYPE":"U","OBJECT_TYPE":"PAYLOAD","ECCENTRICITY":"0.00013850","GP_ID":"221376312","ELEMENT_SET_NO":"999","SITE":"AFETR","OBJECT_ID":"2020-006AR","EPHEMERIS_TYPE":"0","PERIAPSIS":"546.263","DECAY_DATE":null,"BSTAR":"0.00008934600000","COUNTRY_CODE":"US","FILE":"3721442","MEAN_MOTION_DOT":"0.00001050","REV_AT_EPOCH":"15997","INCLINATION":"53.0541","EPOCH":"2022-12-24T18:10:55.245504","RCS_SIZE":"LARGE","APOAPSIS":"548.181","CENTER_NAME":"EARTH","SEMIMAJOR_AXIS":"6925.357","MEAN_ANOMALY":"294.6013","RA_OF_ASC_NODE":"143.1330","MEAN_MOTION_DDOT":"0.0000000000000","TIME_SYSTEM":"UTC"},{"RA_OF_ASC_NODE":"102.9357","MEAN_MOTION_DDOT":"0.0000000000000","TIME_SYSTEM":"UTC","APOAPSIS":"548.061","RCS_SIZE":"LARGE","SEMIMAJOR_AXIS":"6925.305","MEAN_ANOMALY":"289.3556","CENTER_NAME":"EARTH","COUNTRY_CODE":"US","FILE":"3721442","MEAN_MOTION_DOT":"0.00005864","PERIAPSIS":"546.279","BSTAR":"0.00041206000000","DECAY_DATE":null,"INCLINATION":"53.0527","EPOCH":"2022-12-24T19:19:56.326656","REV_AT_EPOCH":"16054","OBJECT_TYPE":"PAYLOAD","ECCENTRICITY":"0.00012870","TLE_LINE2":"2 45084  53.0527 102.9357 0001287  70.7572 289.3556 15.06414201160546","OBJECT_NAME":"STARLINK-1173","REF_FRAME":"TEME","ARG_OF_PERICENTER":"70.7572","CLASSIFICATION_TYPE":"U","SITE":"AFETR","ELEMENT_SET_NO":"999","EPHEMERIS_TYPE":"0","OBJECT_ID":"2020-006AS","GP_ID":"221376562","MEAN_MOTION":"15.06414201","TLE_LINE1":"1 45084U 20006AS  22358.80551304  .00005864  00000-0  41206-3 0  9994","MEAN_ELEMENT_THEORY":"SGP4","PERIOD":"95.591","NORAD_CAT_ID":"45084","LAUNCH_DATE":"2020-01-29"},{"ECCENTRICITY":"0.00011910","OBJECT_TYPE":"PAYLOAD","CLASSIFICATION_TYPE":"U","TLE_LINE2":"2 45085  53.0544 102.9470 0001191  88.0943 272.0183 15.06416960160549","OBJECT_NAME":"STARLINK-1179","REF_FRAME":"TEME","ARG_OF_PERICENTER":"88.0943","EPHEMERIS_TYPE":"0","OBJECT_ID":"2020-006AT","SITE":"AFETR","ELEMENT_SET_NO":"999","GP_ID":"221377313","MEAN_MOTION":"15.06416960","TLE_LINE1":"1 45085U 20006AT  22358.80182342  .00005665  00000-0  39871-3 0  9991","PERIOD":"95.591","MEAN_ELEMENT_THEORY":"SGP4","NORAD_CAT_ID":"45085","LAUNCH_DATE":"2020-01-29","MEAN_MOTION_DDOT":"0.0000000000000","TIME_SYSTEM":"UTC","RA_OF_ASC_NODE":"102.9470","SEMIMAJOR_AXIS":"6925.297","MEAN_ANOMALY":"272.0183","CENTER_NAME":"EARTH","APOAPSIS":"547.986","RCS_SIZE":"LARGE","MEAN_MOTION_DOT":"0.00005665","COUNTRY_CODE":"US","FILE":"3721442","PERIAPSIS":"546.337","DECAY_DATE":null,"BSTAR":"0.00039871000000","INCLINATION":"53.0544","EPOCH":"2022-12-24T19:14:37.543488","REV_AT_EPOCH":"16054"},{"MEAN_ELEMENT_THEORY":"SGP4","PERIOD":"94.234","NORAD_CAT_ID":"45086","LAUNCH_DATE":"2020-01-29","MEAN_MOTION":"15.28118282","TLE_LINE1":"1 45086U 20006AU  22358.56221119  .00048765  00000-0  17561-2 0  9990","SITE":"AFETR","ELEMENT_SET_NO":"999","OBJECT_ID":"2020-006AU","EPHEMERIS_TYPE":"0","GP_ID":"221377064","OBJECT_TYPE":"PAYLOAD","ECCENTRICITY":"0.00025550","TLE_LINE2":"2 45086  52.9807  74.2496 0002555 281.8792  78.1919 15.28118282160798","OBJECT_NAME":"STARLINK-1181","ARG_OF_PERICENTER":"281.8792","REF_FRAME":"TEME","CLASSIFICATION_TYPE":"U","INCLINATION":"52.9807","EPOCH":"2022-12-24T13:29:35.046816","REV_AT_EPOCH":"16079","COUNTRY_CODE":"US","FILE":"3721442","MEAN_MOTION_DOT":"0.00048765","PERIAPSIS":"479.687","BSTAR":"0.00175610000000","DECAY_DATE":null,"RA_OF_ASC_NODE":"74.2496","MEAN_MOTION_DDOT":"0.0000000000000","TIME_SYSTEM":"UTC","RCS_SIZE":"LARGE","APOAPSIS":"483.192","CENTER_NAME":"EARTH","SEMIMAJOR_AXIS":"6859.575","MEAN_ANOMALY":"78.1919"},{"CLASSIFICATION_TYPE":"U","ARG_OF_PERICENTER":"57.5504","REF_FRAME":"TEME","TLE_LINE2":"2 45087  53.0554 103.0103 0001419  57.5504 302.5622 15.06444468160545","OBJECT_NAME":"STARLINK-1185","ECCENTRICITY":"0.00014190","OBJECT_TYPE":"PAYLOAD","GP_ID":"221375813","EPHEMERIS_TYPE":"0","OBJECT_ID":"2020-006AV","ELEMENT_SET_NO":"999","SITE":"AFETR","TLE_LINE1":"1 45087U 20006AV  22358.78706541  .00012500  00000-0  85558-3 0  9992","MEAN_MOTION":"15.06444468","LAUNCH_DATE":"2020-01-29","NORAD_CAT_ID":"45087","PERIOD":"95.589","MEAN_ELEMENT_THEORY":"SGP4","SEMIMAJOR_AXIS":"6925.212","MEAN_ANOMALY":"302.5622","CENTER_NAME":"EARTH","APOAPSIS":"548.060","RCS_SIZE":"LARGE","TIME_SYSTEM":"UTC","MEAN_MOTION_DDOT":"0.0000000000000","RA_OF_ASC_NODE":"103.0103","DECAY_DATE":null,"BSTAR":"0.00085558000000","PERIAPSIS":"546.095","MEAN_MOTION_DOT":"0.00012500","FILE":"3721442","COUNTRY_CODE":"US","REV_AT_EPOCH":"16054","EPOCH":"2022-12-24T18:53:22.451424","INCLINATION":"53.0554"}];
